[{"OBJECT_NAME":"STARLINK-5842","OBJECT_ID":"2023-064AV","EPOCH":"2026-03-09T11:55:29.925696","MEAN_MOTION":14.98329375,"ECCENTRICITY":0.00029733,"INCLINATION":69.9993,"RA_OF_ASC_NODE":104.9449,"ARG_OF_PERICENTER":261.9443,"MEAN_ANOMALY":98.1379,"EPHEMERIS_TYPE":0,"CLASSIFICATION_TYPE":"U","NORAD_CAT_ID":56491,"ELEMENT_SET_NO":999,"REV_AT_EPOCH":15620,"BSTAR":-1.9688752e-5,"MEAN_MOTION_DOT":-3.28e-6,"MEAN_MOTION_DDOT":0},{"OBJECT_NAME":"CZ-4C R\/B","OBJECT_ID":"2010-009D","EPOCH":"2026-03-09T22:19:23.688192","MEAN_MOTION":13.72984009,"ECCENTRICITY":0.06900973,"INCLINATION":63.3888,"RA_OF_ASC_NODE":313.7289,"ARG_OF_PERICENTER":2.6464,"MEAN_ANOMALY":357.7935,"EPHEMERIS_TYPE":0,"CLASSIFICATION_TYPE":"U","NORAD_CAT_ID":36416,"ELEMENT_SET_NO":999,"REV_AT_EPOCH":80095,"BSTAR":0.00032412476,"MEAN_MOTION_DOT":1.649e-5,"MEAN_MOTION_DDOT":0}]
